0 FENGYUN 1C DEB
1 31426U 99025BTN 13281.17210885  .00001105  00000-0  75211-3 0  8656
2 31426 098.6092 051.9989 0371911 002.2291 116.1727 13.73049089322771
0 FENGYUN 1C DEB
1 31426U 99025BTN 13283.56462071  .00001223  00000-0  83005-3 0  8669
2 31426 098.6093 054.1576 0371933 355.7710 062.3785 13.73057235323101
0 FENGYUN 1C DEB
1 31426U 99025BTN 13285.84290264  .00001275  00000-0  86422-3 0  8679
2 31426 098.6095 056.2131 0371981 349.6246 163.9994 13.73062061323419
0 FENGYUN 1C DEB
1 31426U 99025BTN 13288.16732606  .00001822  00000-0  12237-2 0  8689
2 31426 098.6098 058.3106 0372073 343.3573 133.7445 13.73069705323737
0 FENGYUN 1C DEB
1 31426U 99025BTN 13290.33489278  .00001733  00000-0  11645-2 0  8699
2 31426 098.6099 060.2665 0372182 337.5121 048.2006 13.73076998324034
0 FENGYUN 1C DEB
1 31426U 99025BTN 13292.83847617  .00001946  00000-0  13040-2 0  8700
2 31426 098.6096 062.5257 0372335 330.7654 183.6834 13.73084577324371
0 FENGYUN 1C DEB
1 31426U 99025BTN 13295.16339242  .00002166  00000-0  14476-2 0  8719
2 31426 098.6093 064.6238 0372513 324.5055 156.0579 13.73093450324699
